COSMOS 2433 (720)       
1 32275C 07052A   23303.99979167  .00000000  00000-0  00000-0 0  3030
2 32275  66.0062 348.0505 0005334 242.7156 260.7425  2.13104140    11
COSMOS 2432 (719)       
1 32276C 07052B   23303.99979167  .00000000  00000-0  00000-0 0  3031
2 32276  66.0206 348.1602 0010277 311.4477 138.8956  2.13103336    13
COSMOS 2434 (721)       
1 32393C 07065A   23303.99979167  .00000000  00000-0  00000-0 0  3035
2 32393  64.3309 224.3823 0002455  69.9546 324.8710  2.13103140    17
COSMOS 2436 (723)       
1 32395C 07065C   23303.99979167  .00000000  00000-0  00000-0 0  3037
2 32395  64.3396 224.4445 0016452   0.2983 169.9736  2.13102627    16
COSMOS 2456 (730)       
1 36111C 09070A   23303.99979167 -.00000000  00000-0  00000-0 0  3036
2 36111  64.5155 103.8596 0001261 332.9870 220.1822  2.13099133    13
COSMOS 2457 (733)       
1 36112C 09070B   23303.99979167 -.00000000  00000-0  00000-0 0  3037
2 36112  64.4996 103.7236 0006617 148.7719 175.6300  2.13101352    13
COSMOS 2460 (732)       
1 36402C 10007C   23303.99979167  .00000000  00000-0  00000-0 0  3030
2 36402  65.8675 346.7562 0002455 246.3523  67.1053  2.13106345    16
COSMOS 2476 (744)       
1 37867C 11064A   23303.99979167 -.00000000  00000-0  00000-0 0  3031
2 37867  64.7941 105.4083 0021546 230.1138 232.8543  2.13101748    16
COSMOS 2477 (745)       
1 37868C 11064B   23303.99979167 -.00000000  00000-0  00000-0 0  3032
2 37868  64.8014 105.4784 0018724 229.9898  50.8356  2.13101666    19
COSMOS 2475 (743)       
1 37869C 11064C   23303.99979167 -.00000000  00000-0  00000-0 0  3033
2 37869  64.8085 105.4911 0022632 248.5014 350.8634  2.13101918    12
COSMOS 2485 (747)       
1 39155C 13019A   23303.99979167 -.00000000  00000-0  00000-0 0  3035
2 39155  64.9539 105.9440 0022052 226.1760 281.1894  2.13101830    12
COSMOS 2492 (754)       
1 39620C 14012A   23303.99979167  .00000000  00000-0  00000-0 0  3035
2 39620  65.7508 346.3665 0013388 310.4530 231.1257  2.13103179    14
COSMOS 2500 (755)       
1 40001C 14032A   23303.99979167  .00000000  00000-0  00000-0 0  3032
2 40001  65.6889 346.1896 0008596 214.6930 186.9094  2.13106058    13
COSMOS 2501 (702K)      
1 40315C 14075A   23303.99979167  .00000000  00000-0  00000-0 0  3037
2 40315  63.6338 223.6865 0018918 208.3530   0.9233  2.13101122    15
COSMOS 2514 (751)       
1 41330C 16008A   23303.99979167  .00000000  00000-0  00000-0 0  3033
2 41330  65.4856 345.7568 0012639 217.7289   5.8061  2.13102621    11
COSMOS 2522 (752)       
1 42939C 17055A   23303.99979167  .00000000  00000-0  00000-0 0  3032
2 42939  64.0945 224.6449 0007617 241.3831 103.7032  2.13102017    15
COSMOS 2527 (756)       
1 43508C 18053A   23303.99979167 -.00000000  00000-0  00000-0 0  3035
2 43508  65.1150 106.0483 0007805 212.9292 163.8822  2.13102494    16
COSMOS 2529 (757)       
1 43687C 18086A   23303.99979167  .00000000  00000-0  00000-0 0  3038
2 43687  64.3099 225.0957 0009321 265.1509  35.3954  2.13102005    18
COSMOS 2534 (758)       
1 44299C 19030A   23303.99979167  .00000000  00000-0  00000-0 0  3038
2 44299  64.3826 225.0275 0011721 286.2932 148.4960  2.13101949    19
COSMOS 2544 (759)       
1 44850C 19088A   23303.99979167 -.00000000  00000-0  00000-0 0  3035
2 44850  65.1011 105.8900 0011352 247.4171 172.4451  2.13102249    17
COSMOS 2545 (760)       
1 45358C 20018A   23303.99979167  .00000000  00000-0  00000-0 0  3033
2 45358  64.8259 345.9556 0011827 245.4022  23.4485  2.13102589    14
COSMOS 2547 (705K)      
1 46805C 20075A   23303.99979167  .00000000  00000-0  00000-0 0  3034
2 46805  64.6103 224.6004 0007057 241.9713 242.1085  2.13102776    11
COSMOS 2557 (706K)      
1 52984C 20075A   23303.99979167  .00000000  00000-0  00000-0 0  3039
2 52984  64.7444 348.1088 0013602 276.3514  82.7151  2.13102262    15
COSMOS 2559 (707K)      
1 54031C 22130A   23303.99979167  .00000000  00000-0  00000-0 0  3038
2 54031  64.7157 348.2344 0007982 228.3241 175.1917  2.13101512    19
COSMOS 2564 (761)       
1 54377C 22161A   23303.99979167  .00000000  00000-0  00000-0 0  3035
2 54377  64.7511 224.6636 0008961 220.8340  34.7271  2.13102138    10
COSMOS 2569 (703K)      
1 57517C 23114A   23303.99979167 -.00000000  00000-0  00000-0 0  3034
2 57517  64.8247 105.1232 0008576 295.1056 305.6758  2.13104234    11
